SL-3 R/B                
1 19046U 88032B   26079.79244782  .00004352  00000+0  20349-3 0  9992
2 19046  97.5208  63.0058 0025424 191.2677 168.7992 15.20025685 53795
SL-16 R/B               
1 19120U 88039B   26079.62015999 -.00000119  00000+0 -33466-4 0  9994
2 19120  71.0152  45.4332 0023302 318.5509  41.3847 14.19617799959939
COSMOS 1953             
1 19210U 88050A   26079.62301865  .00006606  00000+0  23512-3 0  9992
2 19210  82.5087 147.2508 0012661  88.3819 271.8871 15.28691559 39451
SL-8 R/B                
1 19257U 88053B   26079.80205683  .00000290  00000+0  10248-3 0  9992
2 19257  74.0450  91.9811 0021543 269.8315 263.2088 14.38923042978193
COSMOS 1975             
1 19573U 88093A   26079.52917003  .00005722  00000+0  20652-3 0  9997
2 19573  82.5160 106.8006 0013041 127.8919 232.3502 15.28205545 21069
SL-14 R/B               
1 19574U 88093B   26079.38146245  .00000491  00000+0  53647-4 0  9993
2 19574  82.5327  32.0076 0020878   7.2816 108.8688 14.85668857  2607
SL-16 R/B               
1 19650U 88102B   26079.85331757 -.00000151  00000+0 -52264-4 0  9994
2 19650  70.9988 128.0087 0014749 344.2800  15.7864 14.16155782928477
INTERCOSMOS 24          
1 20261U 89080A   26079.76397340  .00000508  00000+0  15089-3 0  9997
2 20261  82.6016  97.1908 1186701 267.0894  79.4108 12.59572876668191
SL-14 R/B               
1 20262U 89080C   26079.67852514  .00000403  00000+0  11409-3 0  9993
2 20262  82.5967 166.1347 1230817 159.6425 205.8539 12.50505143661521
DELTA 1 R/B             
1 20323U 89089B   26079.79489293  .00000331  00000+0  90169-4 0  9994
2 20323  97.0697 285.4666 0070721  87.5747 273.3545 14.50672189897345
ARIANE 40 R/B           
1 20443U 90005H   26079.58462712  .00000215  00000+0  81791-4 0  9993
2 20443  98.3060 139.9203 0010539 165.6883 194.4606 14.39877116894371
DELTA 2 R/B(1)          
1 20453U 90008B   26079.14924541  .00054938  00000+0  62061-3 0  9991
2 20453  35.6026 106.1373 0081508 355.6437   4.3584 15.57257585927769
