CCSDS_OMM_VERS = 2.0
CREATION_DATE  = 
ORIGINATOR     = 

OBJECT_NAME    = SL-3 R/B
OBJECT_ID      = 1988-032B
CENTER_NAME    = EARTH
REF_FRAME      = TEME
TIME_SYSTEM    = UTC
MEAN_ELEMENT_THEORY = SGP/SGP4

EPOCH          = 2026-03-20T19:01:07.491648
MEAN_MOTION    = 15.20025685
ECCENTRICITY   = .0025424
INCLINATION    = 97.5208
RA_OF_ASC_NODE = 63.0058
ARG_OF_PERICENTER = 191.2677
MEAN_ANOMALY   = 168.7992

EPHEMERIS_TYPE = 0
CLASSIFICATION_TYPE = U
NORAD_CAT_ID   = 19046
ELEMENT_SET_NO = 999
REV_AT_EPOCH   = 5379
BSTAR          = .20349E-3
MEAN_MOTION_DOT = .4352E-4
MEAN_MOTION_DDOT = 0

CCSDS_OMM_VERS = 2.0
CREATION_DATE  = 
ORIGINATOR     = 

OBJECT_NAME    = SL-16 R/B
OBJECT_ID      = 1988-039B
CENTER_NAME    = EARTH
REF_FRAME      = TEME
TIME_SYSTEM    = UTC
MEAN_ELEMENT_THEORY = SGP/SGP4

EPOCH          = 2026-03-20T14:53:01.823136
MEAN_MOTION    = 14.19617799
ECCENTRICITY   = .0023302
INCLINATION    = 71.0152
RA_OF_ASC_NODE = 45.4332
ARG_OF_PERICENTER = 318.5509
MEAN_ANOMALY   = 41.3847

EPHEMERIS_TYPE = 0
CLASSIFICATION_TYPE = U
NORAD_CAT_ID   = 19120
ELEMENT_SET_NO = 999
REV_AT_EPOCH   = 95993
BSTAR          = -.33466E-4
MEAN_MOTION_DOT = -.119E-5
MEAN_MOTION_DDOT = 0

CCSDS_OMM_VERS = 2.0
CREATION_DATE  = 
ORIGINATOR     = 

OBJECT_NAME    = COSMOS 1953
OBJECT_ID      = 1988-050A
CENTER_NAME    = EARTH
REF_FRAME      = TEME
TIME_SYSTEM    = UTC
MEAN_ELEMENT_THEORY = SGP/SGP4

EPOCH          = 2026-03-20T14:57:08.811360
MEAN_MOTION    = 15.28691559
ECCENTRICITY   = .0012661
INCLINATION    = 82.5087
RA_OF_ASC_NODE = 147.2508
ARG_OF_PERICENTER = 88.3819
MEAN_ANOMALY   = 271.8871

EPHEMERIS_TYPE = 0
CLASSIFICATION_TYPE = U
NORAD_CAT_ID   = 19210
ELEMENT_SET_NO = 999
REV_AT_EPOCH   = 3945
BSTAR          = .23512E-3
MEAN_MOTION_DOT = .6606E-4
MEAN_MOTION_DDOT = 0

CCSDS_OMM_VERS = 2.0
CREATION_DATE  = 
ORIGINATOR     = 

OBJECT_NAME    = SL-8 R/B
OBJECT_ID      = 1988-053B
CENTER_NAME    = EARTH
REF_FRAME      = TEME
TIME_SYSTEM    = UTC
MEAN_ELEMENT_THEORY = SGP/SGP4

EPOCH          = 2026-03-20T19:14:57.710112
MEAN_MOTION    = 14.38923042
ECCENTRICITY   = .0021543
INCLINATION    = 74.0450
RA_OF_ASC_NODE = 91.9811
ARG_OF_PERICENTER = 269.8315
MEAN_ANOMALY   = 263.2088

EPHEMERIS_TYPE = 0
CLASSIFICATION_TYPE = U
NORAD_CAT_ID   = 19257
ELEMENT_SET_NO = 999
REV_AT_EPOCH   = 97819
BSTAR          = .10248E-3
MEAN_MOTION_DOT = .29E-5
MEAN_MOTION_DDOT = 0

CCSDS_OMM_VERS = 2.0
CREATION_DATE  = 
ORIGINATOR     = 

OBJECT_NAME    = COSMOS 1975
OBJECT_ID      = 1988-093A
CENTER_NAME    = EARTH
REF_FRAME      = TEME
TIME_SYSTEM    = UTC
MEAN_ELEMENT_THEORY = SGP/SGP4

EPOCH          = 2026-03-20T12:42:00.290592
MEAN_MOTION    = 15.28205545
ECCENTRICITY   = .00130419
INCLINATION    = 82.5160
RA_OF_ASC_NODE = 106.8006
ARG_OF_PERICENTER = 127.8919
MEAN_ANOMALY   = 232.3502

EPHEMERIS_TYPE = 0
CLASSIFICATION_TYPE = U
NORAD_CAT_ID   = 19573
ELEMENT_SET_NO = 999
REV_AT_EPOCH   = 2106
BSTAR          = .20652071E-3
MEAN_MOTION_DOT = .5722E-4
MEAN_MOTION_DDOT = 0

CCSDS_OMM_VERS = 2.0
CREATION_DATE  = 
ORIGINATOR     = 

OBJECT_NAME    = SL-14 R/B
OBJECT_ID      = 1988-093B
CENTER_NAME    = EARTH
REF_FRAME      = TEME
TIME_SYSTEM    = UTC
MEAN_ELEMENT_THEORY = SGP/SGP4

EPOCH          = 2026-03-20T09:09:18.355680
MEAN_MOTION    = 14.85668857
ECCENTRICITY   = .00208783
INCLINATION    = 82.5327
RA_OF_ASC_NODE = 32.0076
ARG_OF_PERICENTER = 7.2816
MEAN_ANOMALY   = 108.8688

EPHEMERIS_TYPE = 0
CLASSIFICATION_TYPE = U
NORAD_CAT_ID   = 19574
ELEMENT_SET_NO = 999
REV_AT_EPOCH   = 260
BSTAR          = .53646777E-4
MEAN_MOTION_DOT = .491E-5
MEAN_MOTION_DDOT = 0

CCSDS_OMM_VERS = 2.0
CREATION_DATE  = 
ORIGINATOR     = 

OBJECT_NAME    = SL-16 R/B
OBJECT_ID      = 1988-102B
CENTER_NAME    = EARTH
REF_FRAME      = TEME
TIME_SYSTEM    = UTC
MEAN_ELEMENT_THEORY = SGP/SGP4

EPOCH          = 2026-03-20T20:28:46.638048
MEAN_MOTION    = 14.16155782
ECCENTRICITY   = .0014749
INCLINATION    = 70.9988
RA_OF_ASC_NODE = 128.0087
ARG_OF_PERICENTER = 344.2800
MEAN_ANOMALY   = 15.7864

EPHEMERIS_TYPE = 0
CLASSIFICATION_TYPE = U
NORAD_CAT_ID   = 19650
ELEMENT_SET_NO = 999
REV_AT_EPOCH   = 92847
BSTAR          = -.52264E-4
MEAN_MOTION_DOT = -.151E-5
MEAN_MOTION_DDOT = 0

CCSDS_OMM_VERS = 2.0
CREATION_DATE  = 
ORIGINATOR     = 

OBJECT_NAME    = INTERCOSMOS 24
OBJECT_ID      = 1989-080A
CENTER_NAME    = EARTH
REF_FRAME      = TEME
TIME_SYSTEM    = UTC
MEAN_ELEMENT_THEORY = SGP/SGP4

EPOCH          = 2026-03-20T18:20:07.301760
MEAN_MOTION    = 12.59572876
ECCENTRICITY   = .1186701
INCLINATION    = 82.6016
RA_OF_ASC_NODE = 97.1908
ARG_OF_PERICENTER = 267.0894
MEAN_ANOMALY   = 79.4108

EPHEMERIS_TYPE = 0
CLASSIFICATION_TYPE = U
NORAD_CAT_ID   = 20261
ELEMENT_SET_NO = 999
REV_AT_EPOCH   = 66819
BSTAR          = .15089E-3
MEAN_MOTION_DOT = .508E-5
MEAN_MOTION_DDOT = 0

CCSDS_OMM_VERS = 2.0
CREATION_DATE  = 
ORIGINATOR     = 

OBJECT_NAME    = SL-14 R/B
OBJECT_ID      = 1989-080C
CENTER_NAME    = EARTH
REF_FRAME      = TEME
TIME_SYSTEM    = UTC
MEAN_ELEMENT_THEORY = SGP/SGP4

EPOCH          = 2026-03-20T16:17:04.572096
MEAN_MOTION    = 12.50505143
ECCENTRICITY   = .1230817
INCLINATION    = 82.5967
RA_OF_ASC_NODE = 166.1347
ARG_OF_PERICENTER = 159.6425
MEAN_ANOMALY   = 205.8539

EPHEMERIS_TYPE = 0
CLASSIFICATION_TYPE = U
NORAD_CAT_ID   = 20262
ELEMENT_SET_NO = 999
REV_AT_EPOCH   = 66152
BSTAR          = .11409E-3
MEAN_MOTION_DOT = .403E-5
MEAN_MOTION_DDOT = 0

CCSDS_OMM_VERS = 2.0
CREATION_DATE  = 
ORIGINATOR     = 

OBJECT_NAME    = DELTA 1 R/B
OBJECT_ID      = 1989-089B
CENTER_NAME    = EARTH
REF_FRAME      = TEME
TIME_SYSTEM    = UTC
MEAN_ELEMENT_THEORY = SGP/SGP4

EPOCH          = 2026-03-20T19:04:38.749152
MEAN_MOTION    = 14.50672189
ECCENTRICITY   = .0070721
INCLINATION    = 97.0697
RA_OF_ASC_NODE = 285.4666
ARG_OF_PERICENTER = 87.5747
MEAN_ANOMALY   = 273.3545

EPHEMERIS_TYPE = 0
CLASSIFICATION_TYPE = U
NORAD_CAT_ID   = 20323
ELEMENT_SET_NO = 999
REV_AT_EPOCH   = 89734
BSTAR          = .90169E-4
MEAN_MOTION_DOT = .331E-5
MEAN_MOTION_DDOT = 0

CCSDS_OMM_VERS = 2.0
CREATION_DATE  = 
ORIGINATOR     = 

OBJECT_NAME    = ARIANE 40 R/B
OBJECT_ID      = 1990-005H
CENTER_NAME    = EARTH
REF_FRAME      = TEME
TIME_SYSTEM    = UTC
MEAN_ELEMENT_THEORY = SGP/SGP4

EPOCH          = 2026-03-20T14:01:51.783168
MEAN_MOTION    = 14.39877116
ECCENTRICITY   = .0010539
INCLINATION    = 98.3060
RA_OF_ASC_NODE = 139.9203
ARG_OF_PERICENTER = 165.6883
MEAN_ANOMALY   = 194.4606

EPHEMERIS_TYPE = 0
CLASSIFICATION_TYPE = U
NORAD_CAT_ID   = 20443
ELEMENT_SET_NO = 999
REV_AT_EPOCH   = 89437
BSTAR          = .81791E-4
MEAN_MOTION_DOT = .215E-5
MEAN_MOTION_DDOT = 0

CCSDS_OMM_VERS = 2.0
CREATION_DATE  = 
ORIGINATOR     = 

OBJECT_NAME    = DELTA 2 R/B(1)
OBJECT_ID      = 1990-008B
CENTER_NAME    = EARTH
REF_FRAME      = TEME
TIME_SYSTEM    = UTC
MEAN_ELEMENT_THEORY = SGP/SGP4

EPOCH          = 2026-03-20T03:34:54.803424
MEAN_MOTION    = 15.57257585
ECCENTRICITY   = .00815089
INCLINATION    = 35.6026
RA_OF_ASC_NODE = 106.1373
ARG_OF_PERICENTER = 355.6437
MEAN_ANOMALY   = 4.3584

EPHEMERIS_TYPE = 0
CLASSIFICATION_TYPE = U
NORAD_CAT_ID   = 20453
ELEMENT_SET_NO = 999
REV_AT_EPOCH   = 92776
BSTAR          = .6206102E-3
MEAN_MOTION_DOT = .54938E-3
MEAN_MOTION_DDOT = 0

